IRIDIUM 36              
1 24967U 97056C   24175.94832567  .00000588  00000+0  19227-3 0  9992
2 24967  86.3967 323.4540 0002315  92.0644 268.0819 14.36855296400766
IRIDIUM 38              
1 25043U 97069E   24175.67520799  .00000497  00000+0  16014-3 0  9993
2 25043  86.3962  23.9372 0002336 134.1294 226.0096 14.37304978394449
IRIDIUM 42              
1 25077U 97077A   24175.66602961  .00000473  00000+0  15751-3 0  9991
2 25077  86.3965  29.6689 0001848 103.1186 257.0217 14.35601270389745
IRIDIUM 44              
1 25078U 97077B   24175.60926682  .00000545  00000+0  16881-3 0  9990
2 25078  86.3959  12.5837 0003783 105.5692 254.5925 14.39442882392101
IRIDIUM 45              
1 25104U 97082A   24175.60647945  .00009848  00000+0  54703-3 0  9998
2 25104  86.3749 219.2345 0157435 215.1636 143.9132 15.03497755397824
IRIDIUM 24              
1 25105U 97082B   24175.68958031  .00000628  00000+0  18824-3 0  9999
2 25105  86.3919 232.1184 0011776 170.9032 189.2384 14.41229987391562
IRIDIUM 51              
1 25262U 98018A   24175.66748033  .00017021  00000+0  77246-3 0  9998
2 25262  86.3961 229.0075 0145397 158.1674 202.5850 15.11603974392393
